{
  "type": "FeatureCollection",
  "features": [
    {
      "type": "Feature",
      "properties": {
        "norad_id": 40118,
        "name": "GAOFEN-2",
        "group": "resource",
        "lat": -69.69564872404099,
        "lon": -149.11697316809222,
        "alt_km": 640.3529537350132,
        "timestamp": "2025-12-20T03:42:47.049224+00:00",
        "meta_object_name": "GAOFEN-2",
        "meta_object_id": "2014-049A",
        "meta_epoch": "2025-12-19T20:05:40.314624",
        "meta_mean_motion": 14.80619001,
        "meta_eccentricity": 0.0008714,
        "meta_inclination": 98.0381,
        "meta_ra_of_asc_node": 53.0185,
        "meta_arg_of_pericenter": 93.1468,
        "meta_mean_anomaly": 267.0741,
        "meta_ephemeris_type": 0,
        "meta_classification_type": "U",
        "meta_norad_cat_id": 40118,
        "meta_element_set_no": 999,
        "meta_rev_at_epoch": 61269,
        "meta_bstar": 1.0518e-05,
        "meta_mean_motion_dot": 2.7e-07,
        "meta_mean_motion_ddot": 0,
        "tle_line1": "1 40118U 14049A   25353.83727216  .00000027  00000+0  10518-4 0  9993",
        "tle_line2": "2 40118  98.0381  53.0185 0008714  93.1468 267.0741 14.80619001612699"
      },
      "geometry": {
        "type": "Point",
        "coordinates": [
          -149.11697316809222,
          -69.69564872404099
        ]
      }
    },
    {
      "type": "Feature",
      "properties": {
        "norad_id": 40143,
        "name": "YAOGAN-21",
        "group": "resource",
        "lat": -75.29996086743819,
        "lon": 65.84384277151575,
        "alt_km": 502.47888941095607,
        "timestamp": "2025-12-20T03:42:47.049234+00:00",
        "meta_object_name": "YAOGAN-21",
        "meta_object_id": "2014-053A",
        "meta_epoch": "2025-12-19T20:10:13.696320",
        "meta_mean_motion": 15.23743387,
        "meta_eccentricity": 0.0009112,
        "meta_inclination": 97.1752,
        "meta_ra_of_asc_node": 36.8449,
        "meta_arg_of_pericenter": 19.308,
        "meta_mean_anomaly": 340.8501,
        "meta_ephemeris_type": 0,
        "meta_classification_type": "U",
        "meta_norad_cat_id": 40143,
        "meta_element_set_no": 999,
        "meta_rev_at_epoch": 62762,
        "meta_bstar": 0.00010696,
        "meta_mean_motion_dot": 2.506e-05,
        "meta_mean_motion_ddot": 0,
        "tle_line1": "1 40143U 14053A   25353.84043630  .00002506  00000+0  10696-3 0  9998",
        "tle_line2": "2 40143  97.1752  36.8449 0009112  19.3080 340.8501 15.23743387627620"
      },
      "geometry": {
        "type": "Point",
        "coordinates": [
          65.84384277151575,
          -75.29996086743819
        ]
      }
    },
    {
      "type": "Feature",
      "properties": {
        "norad_id": 40275,
        "name": "YAOGAN-22",
        "group": "resource",
        "lat": -29.45806737640823,
        "lon": 143.83365854447445,
        "alt_km": 1208.3160739494397,
        "timestamp": "2025-12-20T03:42:47.049245+00:00",
        "meta_object_name": "YAOGAN-22",
        "meta_object_id": "2014-063A",
        "meta_epoch": "2025-12-19T15:05:19.788000",
        "meta_mean_motion": 13.15522939,
        "meta_eccentricity": 0.000601,
        "meta_inclination": 100.7426,
        "meta_ra_of_asc_node": 137.1455,
        "meta_arg_of_pericenter": 231.5131,
        "meta_mean_anomaly": 128.5441,
        "meta_ephemeris_type": 0,
        "meta_classification_type": "U",
        "meta_norad_cat_id": 40275,
        "meta_element_set_no": 999,
        "meta_rev_at_epoch": 53620,
        "meta_bstar": -1.3452e-05,
        "meta_mean_motion_dot": -5.2e-07,
        "meta_mean_motion_ddot": 0,
        "tle_line1": "1 40275U 14063A   25353.62870125 -.00000052  00000+0 -13452-4 0  9998",
        "tle_line2": "2 40275 100.7426 137.1455 0006010 231.5131 128.5441 13.15522939536200"
      },
      "geometry": {
        "type": "Point",
        "coordinates": [
          143.83365854447445,
          -29.45806737640823
        ]
      }
    },
    {
      "type": "Feature",
      "properties": {
        "norad_id": 40298,
        "name": "ASNARO",
        "group": "resource",
        "lat": -40.30261868249349,
        "lon": -116.37788800705671,
        "alt_km": 515.5064310601501,
        "timestamp": "2025-12-20T03:42:47.049256+00:00",
        "meta_object_name": "ASNARO",
        "meta_object_id": "2014-070A",
        "meta_epoch": "2025-12-19T20:25:27.689952",
        "meta_mean_motion": 15.19631019,
        "meta_eccentricity": 0.0005789,
        "meta_inclination": 97.3653,
        "meta_ra_of_asc_node": 69.6243,
        "meta_arg_of_pericenter": 102.0823,
        "meta_mean_anomaly": 258.1061,
        "meta_ephemeris_type": 0,
        "meta_classification_type": "U",
        "meta_norad_cat_id": 40298,
        "meta_element_set_no": 999,
        "meta_rev_at_epoch": 61677,
        "meta_bstar": 0.0002801,
        "meta_mean_motion_dot": 5.905e-05,
        "meta_mean_motion_ddot": 0,
        "tle_line1": "1 40298U 14070A   25353.85101493  .00005905  00000+0  28010-3 0  9996",
        "tle_line2": "2 40298  97.3653  69.6243 0005789 102.0823 258.1061 15.19631019616779"
      },
      "geometry": {
        "type": "Point",
        "coordinates": [
          -116.37788800705671,
          -40.30261868249349
        ]
      }
    },
    {
      "type": "Feature",
      "properties": {
        "norad_id": 40310,
        "name": "YAOGAN-24",
        "group": "resource",
        "lat": 61.95489218232828,
        "lon": -39.162817042901665,
        "alt_km": 624.7727473835512,
        "timestamp": "2025-12-20T03:42:47.049266+00:00",
        "meta_object_name": "YAOGAN-24",
        "meta_object_id": "2014-072A",
        "meta_epoch": "2025-12-19T20:40:44.413824",
        "meta_mean_motion": 14.76191327,
        "meta_eccentricity": 0.0015051,
        "meta_inclination": 98.1221,
        "meta_ra_of_asc_node": 124.9927,
        "meta_arg_of_pericenter": 116.528,
        "meta_mean_anomaly": 243.7474,
        "meta_ephemeris_type": 0,
        "meta_classification_type": "U",
        "meta_norad_cat_id": 40310,
        "meta_element_set_no": 999,
        "meta_rev_at_epoch": 59726,
        "meta_bstar": 0.00013588,
        "meta_mean_motion_dot": 8.88e-06,
        "meta_mean_motion_ddot": 0,
        "tle_line1": "1 40310U 14072A   25353.86162516  .00000888  00000+0  13588-3 0  9996",
        "tle_line2": "2 40310  98.1221 124.9927 0015051 116.5280 243.7474 14.76191327597263"
      },
      "geometry": {
        "type": "Point",
        "coordinates": [
          -39.162817042901665,
          61.95489218232828
        ]
      }
    },
    {
      "type": "Feature",
      "properties": {
        "norad_id": 40336,
        "name": "CBERS 4",
        "group": "resource",
        "lat": -33.198307747821026,
        "lon": -133.58369459381072,
        "alt_km": 779.9035306467913,
        "timestamp": "2025-12-20T03:42:47.049277+00:00",
        "meta_object_name": "CBERS 4",
        "meta_object_id": "2014-079A",
        "meta_epoch": "2025-12-19T20:01:49.442592",
        "meta_mean_motion": 14.3551978,
        "meta_eccentricity": 0.0001792,
        "meta_inclination": 98.3305,
        "meta_ra_of_asc_node": 51.6089,
        "meta_arg_of_pericenter": 104.3372,
        "meta_mean_anomaly": 255.8013,
        "meta_ephemeris_type": 0,
        "meta_classification_type": "U",
        "meta_norad_cat_id": 40336,
        "meta_element_set_no": 999,
        "meta_rev_at_epoch": 57822,
        "meta_bstar": 1.4821e-05,
        "meta_mean_motion_dot": 1e-08,
        "meta_mean_motion_ddot": 0,
        "tle_line1": "1 40336U 14079A   25353.83460003  .00000001  00000+0  14821-4 0  9999",
        "tle_line2": "2 40336  98.3305  51.6089 0001792 104.3372 255.8013 14.35519780578225"
      },
      "geometry": {
        "type": "Point",
        "coordinates": [
          -133.58369459381072,
          -33.198307747821026
        ]
      }
    },
    {
      "type": "Feature",
      "properties": {
        "norad_id": 40362,
        "name": "YAOGAN-26",
        "group": "resource",
        "lat": 55.90536288615516,
        "lon": -15.990023462112783,
        "alt_km": 439.8456533361623,
        "timestamp": "2025-12-20T03:42:47.049287+00:00",
        "meta_object_name": "YAOGAN-26",
        "meta_object_id": "2014-088A",
        "meta_epoch": "2025-12-19T21:13:43.590720",
        "meta_mean_motion": 15.3953668,
        "meta_eccentricity": 0.0005166,
        "meta_inclination": 97.0637,
        "meta_ra_of_asc_node": 354.3047,
        "meta_arg_of_pericenter": 9.052,
        "meta_mean_anomaly": 351.0818,
        "meta_ephemeris_type": 0,
        "meta_classification_type": "U",
        "meta_norad_cat_id": 40362,
        "meta_element_set_no": 999,
        "meta_rev_at_epoch": 61004,
        "meta_bstar": 0.00031687,
        "meta_mean_motion_dot": 0.00012383,
        "meta_mean_motion_ddot": 0,
        "tle_line1": "1 40362U 14088A   25353.88453230  .00012383  00000+0  31687-3 0  9991",
        "tle_line2": "2 40362  97.0637 354.3047 0005166   9.0520 351.0818 15.39536680610042"
      },
      "geometry": {
        "type": "Point",
        "coordinates": [
          -15.990023462112783,
          55.90536288615516
        ]
      }
    }
  ]
}